{"fetched_at":"2026-07-21T17:52:58.834Z","source":"https://celestrak.org/NORAD/elements/gp.php?GROUP=globalstar&FORMAT=JSON","constellation":"globalstar","records":[{"OBJECT_NAME":"GLOBALSTAR M069","OBJECT_ID":"2007-020C","EPOCH":"2026-07-21T06:39:59.668416","CLASSIFICATION_TYPE":"U","MEAN_MOTION":12.23472434,"ECCENTRICITY":0.00015008,"INCLINATION":52.0016,"RA_OF_ASC_NODE":155.6351,"ARG_OF_PERICENTER":223.519,"MEAN_ANOMALY":282.3705,"EPHEMERIS_TYPE":0,"NORAD_CAT_ID":31573,"ELEMENT_SET_NO":999,"REV_AT_EPOCH":88297,"BSTAR":0.00036908606,"MEAN_MOTION_DOT":-5.3e-7,"MEAN_MOTION_DDOT":0},{"OBJECT_NAME":"GLOBALSTAR M072","OBJECT_ID":"2007-020D","EPOCH":"2026-07-20T18:43:29.061408","CLASSIFICATION_TYPE":"U","MEAN_MOTION":11.9165872,"ECCENTRICITY":0.00016484,"INCLINATION":51.9952,"RA_OF_ASC_NODE":10.8115,"ARG_OF_PERICENTER":45.7413,"MEAN_ANOMALY":56.8102,"EPHEMERIS_TYPE":0,"NORAD_CAT_ID":31574,"ELEMENT_SET_NO":999,"REV_AT_EPOCH":87898,"BSTAR":-0.0001048629,"MEAN_MOTION_DOT":-9.2e-7,"MEAN_MOTION_DDOT":0},{"OBJECT_NAME":"GLOBALSTAR M066","OBJECT_ID":"2007-048C","EPOCH":"2026-07-20T14:46:57.997920","CLASSIFICATION_TYPE":"U","MEAN_MOTION":12.30390155,"ECCENTRICITY":0.000552,"INCLINATION":51.9612,"RA_OF_ASC_NODE":321.9495,"ARG_OF_PERICENTER":112.7664,"MEAN_ANOMALY":260.24,"EPHEMERIS_TYPE":0,"NORAD_CAT_ID":32265,"ELEMENT_SET_NO":999,"REV_AT_EPOCH":86434,"BSTAR":0.00051907,"MEAN_MOTION_DOT":-3.3e-7,"MEAN_MOTION_DDOT":0},{"OBJECT_NAME":"GLOBALSTAR M079","OBJECT_ID":"2010-054A","EPOCH":"2026-07-20T19:11:47.651712","CLASSIFICATION_TYPE":"U","MEAN_MOTION":12.62266428,"ECCENTRICITY":0.00011222,"INCLINATION":52.0057,"RA_OF_ASC_NODE":6.3479,"ARG_OF_PERICENTER":86.8814,"MEAN_ANOMALY":21.4025,"EPHEMERIS_TYPE":0,"NORAD_CAT_ID":37188,"ELEMENT_SET_NO":999,"REV_AT_EPOCH":72679,"BSTAR":0.000005972104,"MEAN_MOTION_DOT":-0.00000103,"MEAN_MOTION_DDOT":0},{"OBJECT_NAME":"GLOBALSTAR M074","OBJECT_ID":"2010-054B","EPOCH":"2026-07-20T17:25:50.613600","CLASSIFICATION_TYPE":"U","MEAN_MOTION":12.62262037,"ECCENTRICITY":0.00008499,"INCLINATION":52.0036,"RA_OF_ASC_NODE":5.8322,"ARG_OF_PERICENTER":101.4908,"MEAN_ANOMALY":272.1774,"EPHEMERIS_TYPE":0,"NORAD_CAT_ID":37189,"ELEMENT_SET_NO":999,"REV_AT_EPOCH":72739,"BSTAR":-0.000022145228,"MEAN_MOTION_DOT":-0.00000108,"MEAN_MOTION_DDOT":0},{"OBJECT_NAME":"GLOBALSTAR M076","OBJECT_ID":"2010-054C","EPOCH":"2026-07-20T18:32:24.681696","CLASSIFICATION_TYPE":"U","MEAN_MOTION":12.62262572,"ECCENTRICITY":0.00010956,"INCLINATION":52.0052,"RA_OF_ASC_NODE":5.8977,"ARG_OF_PERICENTER":98.8648,"MEAN_ANOMALY":4.8835,"EPHEMERIS_TYPE":0,"NORAD_CAT_ID":37190,"ELEMENT_SET_NO":999,"REV_AT_EPOCH":72711,"BSTAR":0.000078715558,"MEAN_MOTION_DOT":-9e-7,"MEAN_MOTION_DDOT":0},{"OBJECT_NAME":"GLOBALSTAR M077","OBJECT_ID":"2010-054D","EPOCH":"2026-07-21T03:08:44.421216","CLASSIFICATION_TYPE":"U","MEAN_MOTION":11.67547146,"ECCENTRICITY":0.0002166,"INCLINATION":51.9962,"RA_OF_ASC_NODE":93.141,"ARG_OF_PERICENTER":236.1382,"MEAN_ANOMALY":271.8029,"EPHEMERIS_TYPE":0,"NORAD_CAT_ID":37191,"ELEMENT_SET_NO":999,"REV_AT_EPOCH":72510,"BSTAR":-0.00034664809,"MEAN_MOTION_DOT":-9.7e-7,"MEAN_MOTION_DDOT":0},{"OBJECT_NAME":"GLOBALSTAR M075","OBJECT_ID":"2010-054E","EPOCH":"2026-07-21T06:37:03.663840","CLASSIFICATION_TYPE":"U","MEAN_MOTION":12.62267896,"ECCENTRICITY":0.00007912,"INCLINATION":51.9956,"RA_OF_ASC_NODE":46.4005,"ARG_OF_PERICENTER":73.3734,"MEAN_ANOMALY":98.8792,"EPHEMERIS_TYPE":0,"NORAD_CAT_ID":37192,"ELEMENT_SET_NO":999,"REV_AT_EPOCH":72624,"BSTAR":-0.000029382216,"MEAN_MOTION_DOT":-0.00000109,"MEAN_MOTION_DDOT":0},{"OBJECT_NAME":"GLOBALSTAR M073","OBJECT_ID":"2010-054F","EPOCH":"2026-07-21T02:49:20.702208","CLASSIFICATION_TYPE":"U","MEAN_MOTION":12.62266955,"ECCENTRICITY":0.0000986,"INCLINATION":52.0082,"RA_OF_ASC_NODE":321.0099,"ARG_OF_PERICENTER":106.0331,"MEAN_ANOMALY":65.5656,"EPHEMERIS_TYPE":0,"NORAD_CAT_ID":37193,"ELEMENT_SET_NO":999,"REV_AT_EPOCH":72821,"BSTAR":0.000033666122,"MEAN_MOTION_DOT":-9.8e-7,"MEAN_MOTION_DDOT":0},{"OBJECT_NAME":"GLOBALSTAR M083","OBJECT_ID":"2011-033A","EPOCH":"2026-07-21T04:15:56.975328","CLASSIFICATION_TYPE":"U","MEAN_MOTION":12.62264365,"ECCENTRICITY":0.00006869,"INCLINATION":51.9854,"RA_OF_ASC_NODE":269.01,"ARG_OF_PERICENTER":111.8727,"MEAN_ANOMALY":274.4002,"EPHEMERIS_TYPE":0,"NORAD_CAT_ID":37739,"ELEMENT_SET_NO":999,"REV_AT_EPOCH":69724,"BSTAR":0.000045144795,"MEAN_MOTION_DOT":-9.6e-7,"MEAN_MOTION_DDOT":0},{"OBJECT_NAME":"GLOBALSTAR M088","OBJECT_ID":"2011-033B","EPOCH":"2026-07-21T05:28:03.660960","CLASSIFICATION_TYPE":"U","MEAN_MOTION":12.62269504,"ECCENTRICITY":0.00001561,"INCLINATION":52.0192,"RA_OF_ASC_NODE":175.3648,"ARG_OF_PERICENTER":36.7878,"MEAN_ANOMALY":335.9269,"EPHEMERIS_TYPE":0,"NORAD_CAT_ID":37740,"ELEMENT_SET_NO":999,"REV_AT_EPOCH":69279,"BSTAR":0.000067115656,"MEAN_MOTION_DOT":-9.2e-7,"MEAN_MOTION_DDOT":0},{"OBJECT_NAME":"GLOBALSTAR M091","OBJECT_ID":"2011-033C","EPOCH":"2026-07-21T04:32:54.534912","CLASSIFICATION_TYPE":"U","MEAN_MOTION":12.62264318,"ECCENTRICITY":0.00005675,"INCLINATION":51.9989,"RA_OF_ASC_NODE":138.3969,"ARG_OF_PERICENTER":34.4458,"MEAN_ANOMALY":104.6587,"EPHEMERIS_TYPE":0,"NORAD_CAT_ID":37741,"ELEMENT_SET_NO":999,"REV_AT_EPOCH":69357,"BSTAR":0.00010327486,"MEAN_MOTION_DOT":-8.5e-7,"MEAN_MOTION_DDOT":0},{"OBJECT_NAME":"GLOBALSTAR M085","OBJECT_ID":"2011-033D","EPOCH":"2026-07-21T04:23:36.556800","CLASSIFICATION_TYPE":"U","MEAN_MOTION":12.62264522,"ECCENTRICITY":0.00008909,"INCLINATION":52.0129,"RA_OF_ASC_NODE":89.7389,"ARG_OF_PERICENTER":52.1304,"MEAN_ANOMALY":117.6149,"EPHEMERIS_TYPE":0,"NORAD_CAT_ID":37742,"ELEMENT_SET_NO":999,"REV_AT_EPOCH":69408,"BSTAR":0.000063296789,"MEAN_MOTION_DOT":-9.2e-7,"MEAN_MOTION_DDOT":0},{"OBJECT_NAME":"GLOBALSTAR M081","OBJECT_ID":"2011-033E","EPOCH":"2026-07-21T03:05:39.359328","CLASSIFICATION_TYPE":"U","MEAN_MOTION":12.62265384,"ECCENTRICITY":0.00007675,"INCLINATION":51.996,"RA_OF_ASC_NODE":92.3009,"ARG_OF_PERICENTER":63.2894,"MEAN_ANOMALY":100.2274,"EPHEMERIS_TYPE":0,"NORAD_CAT_ID":37743,"ELEMENT_SET_NO":999,"REV_AT_EPOCH":69422,"BSTAR":0.000041060443,"MEAN_MOTION_DOT":-9.6e-7,"MEAN_MOTION_DDOT":0},{"OBJECT_NAME":"GLOBALSTAR M089","OBJECT_ID":"2011-033F","EPOCH":"2026-07-21T00:10:44.894784","CLASSIFICATION_TYPE":"U","MEAN_MOTION":12.6226764,"ECCENTRICITY":0.00007254,"INCLINATION":51.9941,"RA_OF_ASC_NODE":46.8226,"ARG_OF_PERICENTER":96.2894,"MEAN_ANOMALY":56.1622,"EPHEMERIS_TYPE":0,"NORAD_CAT_ID":37744,"ELEMENT_SET_NO":999,"REV_AT_EPOCH":69505,"BSTAR":-0.000007708394,"MEAN_MOTION_DOT":-0.00000105,"MEAN_MOTION_DDOT":0},{"OBJECT_NAME":"GLOBALSTAR M084","OBJECT_ID":"2011-080A","EPOCH":"2026-07-21T05:34:11.609184","CLASSIFICATION_TYPE":"U","MEAN_MOTION":12.622637,"ECCENTRICITY":0.00007009,"INCLINATION":52.0008,"RA_OF_ASC_NODE":273.6402,"ARG_OF_PERICENTER":141.3675,"MEAN_ANOMALY":251.9871,"EPHEMERIS_TYPE":0,"NORAD_CAT_ID":38040,"ELEMENT_SET_NO":999,"REV_AT_EPOCH":67306,"BSTAR":0.000053982273,"MEAN_MOTION_DOT":-9.4e-7,"MEAN_MOTION_DDOT":0}]}
